start=new Date('2023-01-15T00:00:00.000Z').valueOf();
sats=[{"MEAN_MOTION_DOT":"-0.00000010","OBJECT_NAME":"STARLINK-3579","CENTER_NAME":"EARTH","GP_ID":"222999877","OBJECT_TYPE":"PAYLOAD","COUNTRY_CODE":"US","OBJECT_ID":"2022-022AT","FILE":"3744779","ELEMENT_SET_NO":"999","EPOCH":"2023-01-14T11:28:12.396000","BSTAR":"0.00001750600000","RA_OF_ASC_NODE":"122.6323","APOAPSIS":"541.533","REF_FRAME":"TEME","ARG_OF_PERICENTER":"42.1346","TLE_LINE2":"2 51893  53.2163 122.6323 0002534  42.1346 317.9840 15.08828637 49666","MEAN_ANOMALY":"317.9840","PERIOD":"95.438","PERIAPSIS":"538.027","REV_AT_EPOCH":"4966","LAUNCH_DATE":"2022-03-03","MEAN_ELEMENT_THEORY":"SGP4","NORAD_CAT_ID":"51893","DECAY_DATE":null,"MEAN_MOTION":"15.08828637","SITE":"AFETR","INCLINATION":"53.2163","RCS_SIZE":"LARGE","SEMIMAJOR_AXIS":"6917.915","MEAN_MOTION_DDOT":"0.0000000000000","ECCENTRICITY":"0.00025340","TIME_SYSTEM":"UTC","EPHEMERIS_TYPE":"0","CLASSIFICATION_TYPE":"U","TLE_LINE1":"1 51893U 22022AT  23014.47792125 -.00000010  00000-0  17506-4 0  9996"},{"MEAN_MOTION_DOT":"0.00002046","OBJECT_NAME":"STARLINK-3595","GP_ID":"222989851","COUNTRY_CODE":"US","OBJECT_TYPE":"PAYLOAD","CENTER_NAME":"EARTH","EPOCH":"2023-01-14T06:47:20.837184","ELEMENT_SET_NO":"999","OBJECT_ID":"2022-022AU","FILE":"3744285","APOAPSIS":"541.646","REF_FRAME":"TEME","ARG_OF_PERICENTER":"36.3551","BSTAR":"0.00014669000000","RA_OF_ASC_NODE":"123.5078","PERIOD":"95.438","TLE_LINE2":"2 51894  53.2154 123.5078 0002695  36.3551 323.7623 15.08828279 49638","MEAN_ANOMALY":"323.7623","REV_AT_EPOCH":"4963","PERIAPSIS":"537.917","MEAN_ELEMENT_THEORY":"SGP4","LAUNCH_DATE":"2022-03-03","NORAD_CAT_ID":"51894","DECAY_DATE":null,"MEAN_MOTION":"15.08828279","RCS_SIZE":"LARGE","SEMIMAJOR_AXIS":"6917.916","SITE":"AFETR","INCLINATION":"53.2154","TLE_LINE1":"1 51894U 22022AU  23014.28288006  .00002046  00000-0  14669-3 0  9990","CLASSIFICATION_TYPE":"U","ECCENTRICITY":"0.00026950","MEAN_MOTION_DDOT":"0.0000000000000","TIME_SYSTEM":"UTC","EPHEMERIS_TYPE":"0"},{"OBJECT_ID":"2022-022AV","FILE":"3744285","EPOCH":"2023-01-14T06:36:45.164736","ELEMENT_SET_NO":"999","BSTAR":"0.00068756000000","RA_OF_ASC_NODE":"123.5374","APOAPSIS":"541.573","REF_FRAME":"TEME","ARG_OF_PERICENTER":"47.2813","MEAN_MOTION_DOT":"0.00010668","OBJECT_NAME":"STARLINK-3594","CENTER_NAME":"EARTH","GP_ID":"222989437","OBJECT_TYPE":"PAYLOAD","COUNTRY_CODE":"US","SITE":"AFETR","INCLINATION":"53.2129","RCS_SIZE":"LARGE","SEMIMAJOR_AXIS":"6917.914","MEAN_MOTION_DDOT":"0.0000000000000","ECCENTRICITY":"0.00025930","TIME_SYSTEM":"UTC","EPHEMERIS_TYPE":"0","CLASSIFICATION_TYPE":"U","TLE_LINE1":"1 51895U 22022AV  23014.27552274  .00010668  00000-0  68756-3 0  9996","MEAN_ANOMALY":"312.8397","TLE_LINE2":"2 51895  53.2129 123.5374 0002593  47.2813 312.8397 15.08828983 49571","PERIOD":"95.438","PERIAPSIS":"537.985","REV_AT_EPOCH":"4957","MEAN_ELEMENT_THEORY":"SGP4","LAUNCH_DATE":"2022-03-03","NORAD_CAT_ID":"51895","DECAY_DATE":null,"MEAN_MOTION":"15.08828983"},{"OBJECT_NAME":"STARLINK-3593","MEAN_MOTION_DOT":"0.00001316","CENTER_NAME":"EARTH","OBJECT_TYPE":"PAYLOAD","COUNTRY_CODE":"US","GP_ID":"222989454","FILE":"3744299","OBJECT_ID":"2022-022AW","EPOCH":"2023-01-14T00:16:35.006592","ELEMENT_SET_NO":"999","RA_OF_ASC_NODE":"124.7262","BSTAR":"0.00010081000000","ARG_OF_PERICENTER":"39.6018","REF_FRAME":"TEME","APOAPSIS":"541.770","MEAN_ANOMALY":"320.5185","TLE_LINE2":"2 51896  53.2186 124.7262 0002894  39.6018 320.5185 15.08832751 49580","PERIOD":"95.438","MEAN_MOTION":"15.08832751","DECAY_DATE":null,"MEAN_ELEMENT_THEORY":"SGP4","LAUNCH_DATE":"2022-03-03","NORAD_CAT_ID":"51896","PERIAPSIS":"537.766","REV_AT_EPOCH":"4958","INCLINATION":"53.2186","SITE":"AFETR","SEMIMAJOR_AXIS":"6917.903","RCS_SIZE":"LARGE","EPHEMERIS_TYPE":"0","TIME_SYSTEM":"UTC","MEAN_MOTION_DDOT":"0.0000000000000","ECCENTRICITY":"0.00028940","CLASSIFICATION_TYPE":"U","TLE_LINE1":"1 51896U 22022AW  23014.01151628  .00001316  00000-0  10081-3 0  9995"},{"MEAN_ANOMALY":"333.9036","TLE_LINE2":"2 51897  53.2160 121.7725 0002832  26.2099 333.9036 15.08837220 49632","PERIOD":"95.438","DECAY_DATE":null,"MEAN_MOTION":"15.08837220","MEAN_ELEMENT_THEORY":"SGP4","LAUNCH_DATE":"2022-03-03","NORAD_CAT_ID":"51897","REV_AT_EPOCH":"4963","PERIAPSIS":"537.795","INCLINATION":"53.2160","SITE":"AFETR","SEMIMAJOR_AXIS":"6917.889","RCS_SIZE":"LARGE","EPHEMERIS_TYPE":"0","TIME_SYSTEM":"UTC","MEAN_MOTION_DDOT":"0.0000000000000","ECCENTRICITY":"0.00028320","TLE_LINE1":"1 51897U 22022AX  23014.66925639  .00001114  00000-0  88128-4 0  9992","CLASSIFICATION_TYPE":"U","OBJECT_NAME":"STARLINK-3598","MEAN_MOTION_DOT":"0.00001114","CENTER_NAME":"EARTH","COUNTRY_CODE":"US","OBJECT_TYPE":"PAYLOAD","GP_ID":"223001538","FILE":"3744867","OBJECT_ID":"2022-022AX","EPOCH":"2023-01-14T16:03:43.752096","ELEMENT_SET_NO":"999","RA_OF_ASC_NODE":"121.7725","BSTAR":"0.00008812800000","ARG_OF_PERICENTER":"26.2099","REF_FRAME":"TEME","APOAPSIS":"541.713"},{"CLASSIFICATION_TYPE":"U","TLE_LINE1":"1 51898U 22022AY  23014.59935623  .00003660  00000-0  24788-3 0  9998","EPHEMERIS_TYPE":"0","TIME_SYSTEM":"UTC","MEAN_MOTION_DDOT":"0.0000000000000","ECCENTRICITY":"0.00017560","SEMIMAJOR_AXIS":"6917.853","RCS_SIZE":"LARGE","INCLINATION":"53.2138","SITE":"AFETR","DECAY_DATE":null,"MEAN_MOTION":"15.08849060","NORAD_CAT_ID":"51898","LAUNCH_DATE":"2022-03-03","MEAN_ELEMENT_THEORY":"SGP4","REV_AT_EPOCH":"4967","PERIAPSIS":"538.503","PERIOD":"95.437","TLE_LINE2":"2 51898  53.2138 122.0851 0001756  50.5304 309.5843 15.08849060 49679","MEAN_ANOMALY":"309.5843","ARG_OF_PERICENTER":"50.5304","REF_FRAME":"TEME","APOAPSIS":"540.932","RA_OF_ASC_NODE":"122.0851","BSTAR":"0.00024788000000","ELEMENT_SET_NO":"999","EPOCH":"2023-01-14T14:23:04.378272","FILE":"3744779","OBJECT_ID":"2022-022AY","OBJECT_TYPE":"PAYLOAD","COUNTRY_CODE":"US","GP_ID":"222999885","CENTER_NAME":"EARTH","OBJECT_NAME":"STARLINK-3597","MEAN_MOTION_DOT":"0.00003660"},{"PERIOD":"95.437","TLE_LINE2":"2 51956  53.2171 151.3859 0003240  48.9331 311.1941 15.08842983 48680","MEAN_ANOMALY":"311.1941","DECAY_DATE":null,"MEAN_MOTION":"15.08842983","NORAD_CAT_ID":"51956","LAUNCH_DATE":"2022-03-09","MEAN_ELEMENT_THEORY":"SGP4","REV_AT_EPOCH":"4868","PERIAPSIS":"537.495","SEMIMAJOR_AXIS":"6917.871","RCS_SIZE":"LARGE","INCLINATION":"53.2171","SITE":"AFETR","CLASSIFICATION_TYPE":"U","TLE_LINE1":"1 51956U 22025A   23014.75483992  .00000615  00000-0  56763-4 0  9997","EPHEMERIS_TYPE":"0","TIME_SYSTEM":"UTC","ECCENTRICITY":"0.00032400","MEAN_MOTION_DDOT":"0.0000000000000","OBJECT_NAME":"STARLINK-3700","MEAN_MOTION_DOT":"0.00000615","COUNTRY_CODE":"US","OBJECT_TYPE":"PAYLOAD","GP_ID":"223028144","CENTER_NAME":"EARTH","ELEMENT_SET_NO":"999","EPOCH":"2023-01-14T18:06:58.169088","FILE":"3745251","OBJECT_ID":"2022-025A","ARG_OF_PERICENTER":"48.9331","REF_FRAME":"TEME","APOAPSIS":"541.978","RA_OF_ASC_NODE":"151.3859","BSTAR":"0.00005676300000"},{"LAUNCH_DATE":"2022-03-09","NORAD_CAT_ID":"51957","MEAN_ELEMENT_THEORY":"SGP4","REV_AT_EPOCH":"4860","PERIAPSIS":"538.386","MEAN_MOTION":"15.08835313","DECAY_DATE":null,"PERIOD":"95.438","MEAN_ANOMALY":"279.9353","TLE_LINE2":"2 51957  53.2146 154.4385 0001986  80.1863 279.9353 15.08835313 48603","CLASSIFICATION_TYPE":"U","TLE_LINE1":"1 51957U 22025B   23014.07403536  .00003555  00000-0  24136-3 0  9993","MEAN_MOTION_DDOT":"0.0000000000000","ECCENTRICITY":"0.00019860","EPHEMERIS_TYPE":"0","TIME_SYSTEM":"UTC","RCS_SIZE":"LARGE","SEMIMAJOR_AXIS":"6917.895","SITE":"AFETR","INCLINATION":"53.2146","GP_ID":"222992805","COUNTRY_CODE":"US","OBJECT_TYPE":"PAYLOAD","CENTER_NAME":"EARTH","MEAN_MOTION_DOT":"0.00003555","OBJECT_NAME":"STARLINK-3694","APOAPSIS":"541.134","ARG_OF_PERICENTER":"80.1863","REF_FRAME":"TEME","RA_OF_ASC_NODE":"154.4385","BSTAR":"0.00024136000000","EPOCH":"2023-01-14T01:46:36.655104","ELEMENT_SET_NO":"999","FILE":"3744429","OBJECT_ID":"2022-025B"},{"FILE":"3745251","OBJECT_ID":"2022-025C","EPOCH":"2023-01-14T18:01:40.090080","ELEMENT_SET_NO":"999","RA_OF_ASC_NODE":"151.4008","BSTAR":"0.00041394000000","ARG_OF_PERICENTER":"58.3505","REF_FRAME":"TEME","APOAPSIS":"541.603","OBJECT_NAME":"STARLINK-3692","MEAN_MOTION_DOT":"0.00006308","CENTER_NAME":"EARTH","COUNTRY_CODE":"US","OBJECT_TYPE":"PAYLOAD","GP_ID":"223027727","INCLINATION":"53.2148","SITE":"AFETR","SEMIMAJOR_AXIS":"6917.842","RCS_SIZE":"LARGE","EPHEMERIS_TYPE":"0","TIME_SYSTEM":"UTC","MEAN_MOTION_DDOT":"0.0000000000000","ECCENTRICITY":"0.00027400","CLASSIFICATION_TYPE":"U","TLE_LINE1":"1 51958U 22025C   23014.75115845  .00006308  00000-0  41394-3 0  9996","TLE_LINE2":"2 51958  53.2148 151.4008 0002740  58.3505 301.7754 15.08852478 48682","MEAN_ANOMALY":"301.7754","PERIOD":"95.437","MEAN_MOTION":"15.08852478","DECAY_DATE":null,"LAUNCH_DATE":"2022-03-09","MEAN_ELEMENT_THEORY":"SGP4","NORAD_CAT_ID":"51958","REV_AT_EPOCH":"4868","PERIAPSIS":"537.812"},{"ARG_OF_PERICENTER":"42.1096","REF_FRAME":"TEME","APOAPSIS":"542.325","RA_OF_ASC_NODE":"151.7365","BSTAR":"0.00032947000000","ELEMENT_SET_NO":"999","EPOCH":"2023-01-14T16:10:22.132992","FILE":"3744862","OBJECT_ID":"2022-025D","COUNTRY_CODE":"US","OBJECT_TYPE":"PAYLOAD","GP_ID":"223001746","CENTER_NAME":"EARTH","OBJECT_NAME":"STARLINK-3704","MEAN_MOTION_DOT":"0.00004958","TLE_LINE1":"1 51959U 22025D   23014.67386728  .00004958  00000-0  32947-3 0  9991","CLASSIFICATION_TYPE":"U","EPHEMERIS_TYPE":"0","TIME_SYSTEM":"UTC","MEAN_MOTION_DDOT":"0.0000000000000","ECCENTRICITY":"0.00037040","SEMIMAJOR_AXIS":"6917.898","RCS_SIZE":"LARGE","INCLINATION":"53.2168","SITE":"AFETR","MEAN_MOTION":"15.08834378","DECAY_DATE":null,"LAUNCH_DATE":"2022-03-09","MEAN_ELEMENT_THEORY":"SGP4","NORAD_CAT_ID":"51959","REV_AT_EPOCH":"4867","PERIAPSIS":"537.200","PERIOD":"95.438","TLE_LINE2":"2 51959  53.2168 151.7365 0003704  42.1096 318.0181 15.08834378 48674","MEAN_ANOMALY":"318.0181"}];
